NORAD_CAT_ID,OBJECT_NAME,OBJECT_TYPE,EPOCH,MEAN_MOTION,ECCENTRICITY,INCLINATION,RA_OF_ASC_NODE,ARG_OF_PERICENTER,MEAN_ANOMALY,BSTAR,MEAN_MOTION_DOT,MEAN_MOTION_DDOT,TLE_LINE0,TLE_LINE1,TLE_LINE2,SEMIMAJOR_AXIS,PERIOD,APOGEE,PERIGEE,DECAYED
52873.0,STARLINK-4211,PAYLOAD,2024-01-11 02:25:54,15.08852035,0.000153,53.2179,314.2334,72.9144,287.2016,8.6924e-05,1.096e-05,0.0,0 STARLINK-4211,1 52873U 22062AV  24011.10133016  .00001096  00000-0  86924-4 0  9999,2 52873  53.2179 314.2334 0001530  72.9144 287.2016 15.08852035 87503,6917.844,95.437,540.767,538.65,0.0
52873.0,STARLINK-4211,PAYLOAD,2024-01-11 05:36:40,15.08860476,0.0001374,53.2183,313.6358,93.8392,266.2757,0.00015755,2.222e-05,0.0,0 STARLINK-4211,1 52873U 22062AV  24011.23380028  .00002222  00000-0  15755-3 0  9995,2 52873  53.2183 313.6358 0001374  93.8392 266.2757 15.08860476 87529,6917.818,95.436,540.633,538.732,0.0
52873.0,STARLINK-4211,PAYLOAD,2024-01-12 02:16:43,15.08820359,0.0001358,53.2177,309.7774,55.5364,304.5756,-0.00017051,-2.999e-05,0.0,0 STARLINK-4211,1 52873U 22062AV  24012.09495222 -.00002999  00000-0 -17051-3 0  9997,2 52873  53.2177 309.7774 0001358  55.5364 304.5756 15.08820359 87651,6917.94,95.439,540.745,538.866,0.0
52873.0,STARLINK-4211,PAYLOAD,2024-01-12 11:49:02,15.08824408,0.00017,53.218,307.9934,45.2965,314.8166,-0.0001249,-2.274e-05,0.0,0 STARLINK-4211,1 52873U 22062AV  24012.49239444 -.00002274  00000-0 -12490-3 0  9991,2 52873  53.2180 307.9934 0001700  45.2965 314.8166 15.08824408 87228,6917.928,95.439,540.969,538.617,0.0
52873.0,STARLINK-4211,PAYLOAD,2024-01-12 19:45:57,15.08848449,0.0001395,53.2183,306.4977,93.3474,266.7677,0.00012926,1.77e-05,0.0,0 STARLINK-4211,1 52873U 22062AV  24012.82358055  .00001770  00000-0  12926-3 0  9990,2 52873  53.2183 306.4977 0001395  93.3474 266.7677 15.08848449 87763,6917.855,95.437,540.685,538.755,0.0
52873.0,STARLINK-4211,PAYLOAD,2024-01-12 22:56:43,15.08856839,0.0001273,53.2186,305.9078,70.8628,289.2502,0.00027008,4.015e-05,0.0,0 STARLINK-4211,1 52873U 22062AV  24012.95605777  .00004015  00000-0  27008-3 0  9992,2 52873  53.2186 305.9078 0001273  70.8628 289.2502 15.08856839 87295,6917.829,95.436,540.575,538.813,0.0
52873.0,STARLINK-4211,PAYLOAD,2024-01-13 02:07:29,15.08861673,0.0001403,53.2181,305.3084,90.2477,269.8676,0.00033595,5.066e-05,0.0,0 STARLINK-4211,1 52873U 22062AV  24013.08853263  .00005066  00000-0  33595-3 0  9997,2 52873  53.2181 305.3084 0001403  90.2477 269.8676 15.08861673 87809,6917.814,95.436,540.65,538.709,0.0
52873.0,STARLINK-4211,PAYLOAD,2024-01-13 19:36:44,15.08835867,0.0001395,53.2187,302.0428,91.326,268.7892,0.00050396,7.741e-05,0.0,0 STARLINK-4211,1 52873U 22062AV  24013.81718723  .00007741  00000-0  50396-3 0  9999,2 52873  53.2187 302.0428 0001395  91.3260 268.7892 15.08835867 87919,6917.893,95.438,540.723,538.793,0.0
52873.0,STARLINK-4211,PAYLOAD,2024-01-14 05:09:03,15.08849347,0.0001427,53.2178,300.2535,94.1505,265.965,0.00043202,6.596e-05,0.0,0 STARLINK-4211,1 52873U 22062AV  24014.21461905  .00006596  00000-0  43202-3 0  9996,2 52873  53.2178 300.2535 0001427  94.1505 265.9650 15.08849347 87972,6917.852,95.437,540.704,538.73,0.0
52873.0,STARLINK-4211,PAYLOAD,2024-01-14 19:27:31,15.08846752,0.0001626,53.2172,297.5719,113.6529,246.4633,-7.8661e-05,-1.54e-05,0.0,0 STARLINK-4211,1 52873U 22062AV  24014.81077722 -.00001540  00000-0 -78661-4 0  9996,2 52873  53.2172 297.5719 0001626 113.6529 246.4633 15.08846752 88065,6917.86,95.437,540.85,538.6,0.0
52873.0,STARLINK-4211,PAYLOAD,2024-01-14 22:38:17,15.08850965,0.0001891,53.2173,296.9786,119.0083,241.1099,-1.2431e-05,-4.86e-06,0.0,0 STARLINK-4211,1 52873U 22062AV  24014.94325440 -.00000486  00000-0 -12431-4 0  9994,2 52873  53.2173 296.9786 0001891 119.0083 241.1099 15.08850965 87598,6917.847,95.437,541.02,538.404,0.0
52873.0,STARLINK-4211,PAYLOAD,2024-01-15 00:13:40,15.08856802,0.0001572,53.2184,296.6885,102.5723,257.5445,-1.729e-05,-5.63e-06,0.0,0 STARLINK-4211,1 52873U 22062AV  24015.00949087 -.00000563  00000-0 -17290-4 0  9995,2 52873  53.2184 296.6885 0001572 102.5723 257.5445 15.08856802 88099,6917.829,95.436,540.782,538.607,0.0
52873.0,STARLINK-4211,PAYLOAD,2024-01-16 03:15:14,15.08837271,0.0001473,53.2181,291.6311,96.4085,263.7075,-9.0508e-05,-1.728e-05,0.0,0 STARLINK-4211,1 52873U 22062AV  24016.13558098 -.00001728  00000-0 -90508-4 0  9995,2 52873  53.2181 291.6311 0001473  96.4085 263.7075 15.08837271 88263,6917.889,95.438,540.773,538.735,0.0
52873.0,STARLINK-4211,PAYLOAD,2024-01-16 22:19:54,15.08797026,0.0001797,53.2184,288.0642,91.8099,268.3099,0.0011546,0.00018114,0.0,0 STARLINK-4211,1 52873U 22062AV  24016.93048678  .00018114  00000-0  11546-2 0  9999,2 52873  53.2184 288.0642 0001797  91.8099 268.3099 15.08797026 87894,6918.012,95.44,541.12,538.634,0.0
52873.0,STARLINK-4211,PAYLOAD,2024-01-17 01:30:38,15.08841728,0.0001569,53.2176,287.4696,92.0595,268.0577,0.0001045,1.376e-05,0.0,0 STARLINK-4211,1 52873U 22062AV  24017.06294392  .00001376  00000-0  10450-3 0  9996,2 52873  53.2176 287.4696 0001569  92.0595 268.0577 15.08841728 87918,6917.875,95.437,540.826,538.655,0.0
52873.0,STARLINK-4211,PAYLOAD,2024-01-17 22:10:39,15.08836842,0.0001339,53.2173,283.6006,101.5329,258.5813,0.00011707,1.576e-05,0.0,0 STARLINK-4211,1 52873U 22062AV  24017.92406833  .00001576  00000-0  11707-3 0  9994,2 52873  53.2173 283.6006 0001339 101.5329 258.5813 15.08836842 88047,6917.89,95.438,540.681,538.829,0.0
52873.0,STARLINK-4211,PAYLOAD,2024-01-18 02:56:48,15.08845525,0.0001464,53.2175,282.7083,85.5522,274.5637,0.00024758,3.655e-05,0.0,0 STARLINK-4211,1 52873U 22062AV  24018.12278564  .00003655  00000-0  24758-3 0  9995,2 52873  53.2175 282.7083 0001464  85.5522 274.5637 15.08845525 88566,6917.864,95.437,540.741,538.716,0.0
52873.0,STARLINK-4211,PAYLOAD,2024-01-18 22:01:26,15.08846198,0.0001353,53.2184,279.1383,113.3149,246.7986,3.8983e-05,3.33e-06,0.0,0 STARLINK-4211,1 52873U 22062AV  24018.91766422  .00000333  00000-0  38983-4 0  9993,2 52873  53.2184 279.1383 0001353 113.3149 246.7986 15.08846198 88195,6917.861,95.437,540.662,538.79,0.0
52873.0,STARLINK-4211,PAYLOAD,2024-01-18 23:36:49,15.0884691,0.0001568,53.2153,278.8513,66.4587,293.6569,0.00012772,1.746e-05,0.0,0 STARLINK-4211,1 52873U 22062AV  24018.98390629  .00001746  00000-0  12772-3 0  9998,2 52873  53.2153 278.8513 0001568  66.4587 293.6569 15.08846910 88699,6917.859,95.437,540.809,538.64,0.0
52873.0,STARLINK-4211,PAYLOAD,2024-01-19 20:16:50,15.08844626,0.0001835,53.2172,274.9782,111.5014,248.6174,2.6388e-05,1.32e-06,0.0,0 STARLINK-4211,1 52873U 22062AV  24019.84502529  .00000132  00000-0  26388-4 0  9995,2 52873  53.2172 274.9782 0001835 111.5014 248.6174 15.08844626 88828,6917.866,95.437,541.001,538.462,0.0
52873.0,STARLINK-4211,PAYLOAD,2024-01-19 21:52:13,15.08843518,0.0001336,53.2177,274.6794,81.4395,278.6748,3.3239e-05,2.41e-06,0.0,0 STARLINK-4211,1 52873U 22062AV  24019.91126722  .00000241  00000-0  33239-4 0  9994,2 52873  53.2177 274.6794 0001336  81.4395 278.6748 15.08843518 88342,6917.87,95.437,540.659,538.81,0.0
52873.0,STARLINK-4211,PAYLOAD,2024-01-19 23:27:36,15.08844535,0.0001355,53.2168,274.3841,78.184,281.9304,5.0662e-05,5.19e-06,0.0,0 STARLINK-4211,1 52873U 22062AV  24019.97750642  .00000519  00000-0  50662-4 0  9991,2 52873  53.2168 274.3841 0001355  78.1840 281.9304 15.08844535 88357,6917.867,95.437,540.669,538.794,0.0
52873.0,STARLINK-4211,PAYLOAD,2024-01-20 20:07:37,15.08842713,0.0001461,53.2168,270.5206,61.0338,299.08,-7.3954e-06,-4.06e-06,0.0,0 STARLINK-4211,1 52873U 22062AV  24020.83862975 -.00000406  00000-0 -73954-5 0  9998,2 52873  53.2168 270.5206 0001461  61.0338 299.0800 15.08842713 88976,6917.872,95.437,540.748,538.726,0.0
52873.0,STARLINK-4211,PAYLOAD,2024-01-20 21:43:00,15.08841954,0.0001298,53.2166,270.2237,73.9641,286.1494,3.313e-05,2.39e-06,0.0,0 STARLINK-4211,1 52873U 22062AV  24020.90487012  .00000239  00000-0  33130-4 0  9994,2 52873  53.2166 270.2237 0001298  73.9641 286.1494 15.08841954 88491,6917.874,95.437,540.637,538.841,0.0
52873.0,STARLINK-4211,PAYLOAD,2024-01-21 02:29:09,15.08848404,0.0001315,53.2171,269.3292,83.3566,276.7575,3.1709e-05,2.17e-06,0.0,0 STARLINK-4211,1 52873U 22062AV  24021.10358494  .00000217  00000-0  31709-4 0  9994,2 52873  53.2171 269.3292 0001315  83.3566 276.7575 15.08848404 88524,6917.855,95.437,540.629,538.81,0.0
52873.0,STARLINK-4211,PAYLOAD,2024-01-21 21:33:47,15.08840936,0.000127,53.2165,265.7596,99.7028,260.4107,5.3354e-05,5.61e-06,0.0,0 STARLINK-4211,1 52873U 22062AV  24021.89846952  .00000561  00000-0  53354-4 0  9993,2 52873  53.2165 265.7596 0001270  99.7028 260.4107 15.08840936 88644,6917.878,95.437,540.621,538.864,0.0
52873.0,STARLINK-4211,PAYLOAD,2024-01-22 19:49:12,15.08836061,0.0001245,53.2166,261.5958,93.22,266.8935,3.291e-05,2.36e-06,0.0,0 STARLINK-4211,1 52873U 22062AV  24022.82583651  .00000236  00000-0  32910-4 0  9995,2 52873  53.2166 261.5958 0001245  93.2200 266.8935 15.08836061 89277,6917.892,95.438,540.619,538.896,0.0
52873.0,STARLINK-4211,PAYLOAD,2024-01-22 21:24:35,15.08835343,0.0001306,53.2163,261.2983,97.9867,262.1273,2.3331e-05,8.3e-07,0.0,0 STARLINK-4211,1 52873U 22062AV  24022.89207644  .00000083  00000-0  23331-4 0  9994,2 52873  53.2163 261.2983 0001306  97.9867 262.1273 15.08835343 88799,6917.895,95.438,540.663,538.856,0.0
52873.0,STARLINK-4211,PAYLOAD,2024-01-22 22:59:58,15.08836843,0.0001331,53.2168,261.001,100.6096,259.5046,3.0523e-05,1.98e-06,0.0,0 STARLINK-4211,1 52873U 22062AV  24022.95831522  .00000198  00000-0  30523-4 0  9997,2 52873  53.2168 261.0010 0001331 100.6096 259.5046 15.08836843 88803,6917.89,95.438,540.676,538.834,0.0
52873.0,STARLINK-4211,PAYLOAD,2024-01-23 22:50:45,15.08810224,0.0001547,53.2168,256.5441,96.3629,263.7539,0.00066705,0.00010335,0.0,0 STARLINK-4211,1 52873U 22062AV  24023.95191586  .00010335  00000-0  66705-3 0  9991,2 52873  53.2168 256.5441 0001547  96.3629 263.7539 15.08810224 88957,6917.971,95.439,540.907,538.766,0.0
